NORAD_CAT_ID,OBJECT_NAME,OBJECT_TYPE,EPOCH,MEAN_MOTION,ECCENTRICITY,INCLINATION,RA_OF_ASC_NODE,ARG_OF_PERICENTER,MEAN_ANOMALY,BSTAR,MEAN_MOTION_DOT,MEAN_MOTION_DDOT,TLE_LINE0,TLE_LINE1,TLE_LINE2,SEMIMAJOR_AXIS,PERIOD,APOGEE,PERIGEE,DECAYED
55661.0,STARLINK-5475,PAYLOAD,2023-10-30 21:16:29,14.98326717,0.0002643,70.0008,174.8872,273.2233,86.8624,-3.8201e-06,-1.39e-06,0.0,0 STARLINK-5475,1 55661U 23021AK  23303.88645705 -.00000139  00000-0 -38201-5 0  9999,2 55661  70.0008 174.8872 0002643 273.2233  86.8624 14.98326717 40347,6950.203,96.107,573.905,570.231,0.0
55661.0,STARLINK-5475,PAYLOAD,2023-10-31 02:04:53,14.98327302,0.0002626,70.0006,174.3822,270.0288,90.057,6.4351e-06,-1.6e-07,0.0,0 STARLINK-5475,1 55661U 23021AK  23304.08673598 -.00000016  00000-0  64351-5 0  9991,2 55661  70.0006 174.3822 0002626 270.0288  90.0570 14.98327302 40079,6950.201,96.107,573.891,570.241,0.0
55661.0,STARLINK-5475,PAYLOAD,2023-10-31 14:53:58,14.9833374,0.0002907,69.9996,173.035,276.501,83.5818,-8.5869e-06,-1.95e-06,0.0,0 STARLINK-5475,1 55661U 23021AK  23304.62081172 -.00000195  00000-0 -85869-5 0  9998,2 55661  69.9996 173.0350 0002907 276.5010  83.5818 14.98333740 40459,6950.181,96.107,574.067,570.026,0.0
55661.0,STARLINK-5475,PAYLOAD,2023-10-31 21:18:30,14.98335131,0.0002659,70.0002,172.3616,268.15,91.9354,7.817e-05,8.4e-06,0.0,0 STARLINK-5475,1 55661U 23021AK  23304.88784755  .00000840  00000-0  78170-4 0  9994,2 55661  70.0002 172.3616 0002659 268.1500  91.9354 14.98335131 40197,6950.177,96.107,573.89,570.194,0.0
55661.0,STARLINK-5475,PAYLOAD,2023-11-01 08:31:26,14.98342301,0.0002507,70.001,171.1834,273.7602,86.327,-0.0002641,-3.244e-05,0.0,0 STARLINK-5475,1 55661U 23021AK  23305.35517156 -.00003244  00000-0 -26410-3 0  9998,2 55661  70.0010 171.1834 0002507 273.7602  86.3270 14.98342301 40565,6950.155,96.106,573.762,570.277,0.0
55661.0,STARLINK-5475,PAYLOAD,2023-11-01 21:20:31,14.98339728,0.0002746,70.0003,169.8375,259.7137,100.3713,-0.00017287,-2.155e-05,0.0,0 STARLINK-5475,1 55661U 23021AK  23305.88925135 -.00002155  00000-0 -17287-3 0  9998,2 55661  70.0003 169.8375 0002746 259.7137 100.3713 14.98339728 40347,6950.163,96.106,573.936,570.119,0.0
55661.0,STARLINK-5475,PAYLOAD,2023-11-02 08:33:27,14.98328826,0.0003105,69.9995,168.6583,270.5037,89.5767,-1.7591e-05,-3.03e-06,0.0,0 STARLINK-5475,1 55661U 23021AK  23306.35657241 -.00000303  00000-0 -17591-4 0  9993,2 55661  69.9995 168.6583 0003105 270.5037  89.5767 14.98328826 40414,6950.197,96.107,574.22,569.903,0.0
55661.0,STARLINK-5475,PAYLOAD,2023-11-02 21:22:32,14.98332217,0.0003071,69.9994,167.3123,270.0085,90.0722,-2.4655e-05,-3.87e-06,0.0,0 STARLINK-5475,1 55661U 23021AK  23306.89065068 -.00000387  00000-0 -24655-4 0  9993,2 55661  69.9994 167.3123 0003071 270.0085  90.0722 14.98332217 40797,6950.186,96.107,574.185,569.917,0.0
55661.0,STARLINK-5475,PAYLOAD,2023-11-03 00:34:48,14.98332861,0.0003,69.9995,166.9752,267.5545,92.527,9.4345e-06,2e-07,0.0,0 STARLINK-5475,1 55661U 23021AK  23307.02416859  .00000020  00000-0  94345-5 0  9993,2 55661  69.9995 166.9752 0003000 267.5545  92.5270 14.98332861 40818,6950.184,96.107,574.134,569.964,0.0
55661.0,STARLINK-5475,PAYLOAD,2023-11-03 18:12:17,14.98326263,0.0002967,69.9993,165.1241,269.3967,90.6852,-6.005e-07,-1e-06,0.0,0 STARLINK-5475,1 55661U 23021AK  23307.75853360 -.00000100  00000-0 -60050-6 0  9993,2 55661  69.9993 165.1241 0002967 269.3967  90.6852 14.98326263 40622,6950.204,96.107,574.132,570.007,0.0
55661.0,STARLINK-5475,PAYLOAD,2023-11-04 00:36:49,14.98327397,0.0002963,69.9993,164.4512,269.8015,90.2804,-3.7223e-06,-1.37e-06,0.0,0 STARLINK-5475,1 55661U 23021AK  23308.02557346 -.00000137  00000-0 -37223-5 0  9994,2 55661  69.9993 164.4512 0002963 269.8015  90.2804 14.98327397 40969,6950.201,96.107,574.125,570.007,0.0
55661.0,STARLINK-5475,PAYLOAD,2023-11-04 21:26:33,14.98334328,0.0002923,69.9995,162.2636,268.8501,91.2323,3.4163e-05,3.15e-06,0.0,0 STARLINK-5475,1 55661U 23021AK  23308.89344782  .00000315  00000-0  34163-4 0  9992,2 55661  69.9995 162.2636 0002923 268.8501  91.2323 14.98334328 40799,6950.18,96.107,574.076,570.013,0.0
55661.0,STARLINK-5475,PAYLOAD,2023-11-05 15:04:02,14.98334277,0.0002901,69.9993,160.4111,272.095,87.9877,8.27e-05,8.94e-06,0.0,0 STARLINK-5475,1 55661U 23021AK  23309.62780397  .00000894  00000-0  82700-4 0  9992,2 55661  69.9993 160.4111 0002901 272.0950  87.9877 14.98334277 41202,6950.18,96.107,574.061,570.028,0.0
55661.0,STARLINK-5475,PAYLOAD,2023-11-05 21:28:33,14.98340717,0.000282,69.9988,159.7383,270.0755,90.0081,0.00012925,1.45e-05,0.0,0 STARLINK-5475,1 55661U 23021AK  23309.89483749  .00001450  00000-0  12925-3 0  9992,2 55661  69.9988 159.7383 0002820 270.0755  90.0081 14.98340717 41241,6950.16,96.106,573.985,570.065,0.0
55661.0,STARLINK-5475,PAYLOAD,2023-11-06 00:40:49,14.98344647,0.0002802,69.9989,159.4017,269.7285,90.3552,0.00016493,1.876e-05,0.0,0 STARLINK-5475,1 55661U 23021AK  23310.02835275  .00001876  00000-0  16493-3 0  9990,2 55661  69.9989 159.4017 0002802 269.7285  90.3552 14.98344647 40966,6950.148,96.106,573.96,570.065,0.0
55661.0,STARLINK-5475,PAYLOAD,2023-11-06 19:54:27,14.98331873,0.0002897,69.9987,157.378,271.1963,88.8864,-3.7664e-05,-5.42e-06,0.0,0 STARLINK-5475,1 55661U 23021AK  23310.82948202 -.00000542  00000-0 -37664-4 0  9998,2 55661  69.9987 157.3780 0002897 271.1963  88.8864 14.98331873 41081,6950.187,96.107,574.066,570.039,0.0
55661.0,STARLINK-5475,PAYLOAD,2023-11-06 21:30:35,14.98330481,0.0002931,69.999,157.2101,272.0578,88.0245,-2.8625e-05,-4.35e-06,0.0,0 STARLINK-5475,1 55661U 23021AK  23310.89624268 -.00000435  00000-0 -28625-4 0  9996,2 55661  69.9990 157.2101 0002931 272.0578  88.0245 14.98330481 41395,6950.191,96.107,574.094,570.019,0.0
55661.0,STARLINK-5475,PAYLOAD,2023-11-07 07:07:23,14.98363875,0.000286,70.0002,156.201,281.6699,78.4139,-0.00087991,-0.00010585,0.0,0 STARLINK-5475,1 55661U 23021AK  23311.29680096 -.00010585  00000-0 -87991-3 0  9999,2 55661  70.0002 156.2010 0002860 281.6699  78.4139 14.98363875 41153,6950.088,96.105,573.941,569.965,0.0
55661.0,STARLINK-5475,PAYLOAD,2023-11-07 19:56:29,14.98319612,0.0002734,69.999,154.8569,264.194,95.8908,-0.00024351,-2.996e-05,0.0,0 STARLINK-5475,1 55661U 23021AK  23311.83089843 -.00002996  00000-0 -24351-3 0  9990,2 55661  69.9990 154.8569 0002734 264.1940  95.8908 14.98319612 41230,6950.225,96.108,573.99,570.19,0.0
55661.0,STARLINK-5475,PAYLOAD,2023-11-08 13:33:58,14.98318809,0.000319,69.9985,153.005,283.4212,76.6591,-8.3921e-05,-1.094e-05,0.0,0 STARLINK-5475,1 55661U 23021AK  23312.56525964 -.00001094  00000-0 -83921-4 0  9997,2 55661  69.9985 153.0050 0003190 283.4212  76.6591 14.98318809 41640,6950.227,96.108,574.31,569.875,0.0
55661.0,STARLINK-5475,PAYLOAD,2023-11-08 19:58:30,14.98318939,0.0003244,69.9985,152.3312,273.7048,86.374,-5.98e-05,-8.06e-06,0.0,0 STARLINK-5475,1 55661U 23021AK  23312.83229984 -.00000806  00000-0 -59800-4 0  9999,2 55661  69.9985 152.3312 0003244 273.7048  86.3740 14.98318939 41381,6950.227,96.108,574.347,569.837,0.0
55661.0,STARLINK-5475,PAYLOAD,2023-11-08 21:34:38,14.98320302,0.0003147,69.9986,152.1631,273.2452,86.8347,-6.1533e-05,-8.27e-06,0.0,0 STARLINK-5475,1 55661U 23021AK  23312.89905978 -.00000827  00000-0 -61533-4 0  9998,2 55661  69.9986 152.1631 0003147 273.2452  86.8347 14.98320302 41699,6950.223,96.108,574.275,569.901,0.0
55661.0,STARLINK-5475,PAYLOAD,2023-11-09 13:35:59,14.98315443,0.0003066,69.9984,150.4802,271.9892,88.0916,0.00013206,1.482e-05,0.0,0 STARLINK-5475,1 55661U 23021AK  23313.56666300  .00001482  00000-0  13206-3 0  9995,2 55661  69.9984 150.4802 0003066 271.9892  88.0916 14.98315443 41798,6950.238,96.108,574.234,569.972,0.0
55661.0,STARLINK-5475,PAYLOAD,2023-11-09 20:00:31,14.98318754,0.00031,69.9985,149.8066,271.8614,88.219,0.00013376,1.503e-05,0.0,0 STARLINK-5475,1 55661U 23021AK  23313.83370319  .00001503  00000-0  13376-3 0  9999,2 55661  69.9985 149.8066 0003100 271.8614  88.2190 14.98318754 41539,6950.228,96.108,574.247,569.938,0.0
55661.0,STARLINK-5475,PAYLOAD,2023-11-09 21:36:40,14.9831937,0.0003081,69.9984,149.6381,271.8029,88.2777,0.00013882,1.563e-05,0.0,0 STARLINK-5475,1 55661U 23021AK  23313.90046311  .00001563  00000-0  13882-3 0  9997,2 55661  69.9984 149.6381 0003081 271.8029  88.2777 14.98319370 41844,6950.226,96.108,574.232,569.949,0.0
55661.0,STARLINK-5475,PAYLOAD,2023-11-10 13:38:00,14.98326925,0.0003096,69.9983,147.9545,272.8327,87.2477,9.2291e-05,1.008e-05,0.0,0 STARLINK-5475,1 55661U 23021AK  23314.56806305  .00001008  00000-0  92291-4 0  9993,2 55661  69.9983 147.9545 0003096 272.8327  87.2477 14.98326925 41945,6950.202,96.107,574.219,569.916,0.0
55661.0,STARLINK-5475,PAYLOAD,2023-11-10 20:02:32,14.98329519,0.0003073,69.9984,147.2813,272.8279,87.2529,0.00011473,1.276e-05,0.0,0 STARLINK-5475,1 55661U 23021AK  23314.83510111  .00001276  00000-0  11473-3 0  9999,2 55661  69.9984 147.2813 0003073 272.8279  87.2529 14.98329519 41689,6950.194,96.107,574.195,569.924,0.0
55661.0,STARLINK-5475,PAYLOAD,2023-11-11 13:40:01,14.98335865,0.0003053,69.9985,145.4301,272.1377,87.9432,7.6752e-05,8.23e-06,0.0,0 STARLINK-5475,1 55661U 23021AK  23315.56945723  .00000823  00000-0  76752-4 0  9990,2 55661  69.9985 145.4301 0003053 272.1377  87.9432 14.98335865 42099,6950.175,96.107,574.162,569.918,0.0
55661.0,STARLINK-5475,PAYLOAD,2023-11-11 20:04:32,14.98382229,0.000328,69.9985,144.7568,272.7472,87.3312,-0.00065503,-7.911e-05,0.0,0 STARLINK-5475,1 55661U 23021AK  23315.83648584 -.00007911  00000-0 -65503-3 0  9993,2 55661  69.9985 144.7568 0003280 272.7472  87.3312 14.98382229 41838,6950.031,96.104,574.176,569.617,0.0
55661.0,STARLINK-5475,PAYLOAD,2023-11-11 21:40:41,14.98337847,0.0003035,69.9985,144.5885,272.1057,87.9754,9.0837e-05,9.91e-06,0.0,0 STARLINK-5475,1 55661U 23021AK  23315.90325393  .00000991  00000-0  90837-4 0  9999,2 55661  69.9985 144.5885 0003035 272.1057  87.9754 14.98337847 42146,6950.169,96.106,574.143,569.924,0.0
